NOAA 12                 
1 21263U 91032A   24115.96136907  .00000467  00000+0  21249-3 0  9990
2 21263  98.5567 108.2839 0014195 153.0923 207.0996 14.26285825713298
NOAA 13                 
1 22739U 93050A   24115.90295531  .00000535  00000+0  30809-3 0  9992
2 22739  98.6019  75.4460 0008936 199.7867 160.2960 14.13185273582720
NOAA 14                 
1 23455U 94089A   24116.52953426  .00000252  00000+0  15279-3 0  9994
2 23455  98.4323 115.4568 0009669 166.9480 193.1946 14.14377642512790
NOAA 15                 
1 25338U 98030A   24116.56326841  .00000611  00000+0  27096-3 0  9994
2 25338  98.5734 144.7790 0011485 116.5585 243.6774 14.26548891349930
NOAA 16                 
1 26536U 00055A   24115.85474909  .00000360  00000+0  21309-3 0  9997
2 26536  98.5369 157.8774 0011013  34.6684 325.5205 14.13559332513041
NOAA 17                 
1 27453U 02032A   24115.93714102  .00000625  00000+0  28291-3 0  9995
2 27453  98.7591  66.5712 0012847 101.8969 258.3652 14.25544372135361
NOAA 18                 
1 28654U 05018A   24116.46174503  .00000577  00000+0  33194-3 0  9994
2 28654  98.8750 193.8633 0013894 208.6244 151.4167 14.13180972975819
NOAA 19                 
1 33591U 09005A   24116.47663002  .00000531  00000+0  30877-3 0  9993
2 33591  99.0516 171.7084 0014835  82.4590 277.8266 14.12980800784189
SUOMI NPP               
1 37849U 11061A   24116.53214894  .00000331  00000+0  17759-3 0  9998
2 37849  98.7193  55.3102 0001700  78.4893 281.6474 14.19554550647393
NOAA 20 (JPSS-1)        
1 43013U 17073A   24116.47986613  .00000265  00000+0  14612-3 0  9996
2 43013  98.7035  55.2919 0001639  50.4546 309.6774 14.19569943333421
NOAA 21 (JPSS-2)        
1 54234U 22150A   24116.51353817  .00000391  00000+0  20642-3 0  9994
2 54234  98.7490  55.0327 0000746  63.7252 296.4000 14.19554968 75501
ISS (ZARYA)             
1 25544U 98067A   24116.57171344  .00035563  00000+0  60857-3 0  9996
2 25544  51.6399 216.2951 0004941  95.9376   3.6499 15.50893764450387
CSS (TIANHE)            
1 48274U 21035A   24116.20364682  .00052464  00000+0  57153-3 0  9995
2 48274  41.4681  46.7338 0004223 265.5806  94.4551 15.62541017170801
ISS (NAUKA)             
1 49044U 21066A   24115.78066593  .00038284  00000+0  65571-3 0  9994
2 49044  51.6381 220.2226 0004657  91.4748 268.6775 15.50834970450224
FREGAT DEB              
1 49271U 11037PF  24115.09141399  .00029807  00000+0  74116-1 0  9999
2 49271  51.6581 142.8427 0955479   7.0698 354.2591 12.13646910128629
CSS (WENTIAN)           
1 53239U 22085A   24115.88407003  .00055394  00000+0  60381-3 0  9998
2 53239  41.4680  48.6823 0004159 266.1424  93.8940 15.62507682 94628
CSS (MENGTIAN)          
1 54216U 22143A   24115.88407003  .00055394  00000+0  60381-3 0  9999
2 54216  41.4680  48.6823 0004159 266.1424  93.8940 15.62507682 83835
ISS DEB [SPX-28 IPA FSE]
1 57212U 98067VP  24116.21348312  .00305100  46636-4  86090-3 0  9999
2 57212  51.6224 185.4085 0006216 356.5850   3.5114 15.92937674 47702
SHENZHOU-17 (SZ-17)     
1 58146U 23164A   24115.88407003  .00055394  00000+0  60381-3 0  9999
2 58146  41.4680  48.6823 0004159 266.1424  93.8940 15.62507682 22889
ISS DEB                 
1 58229U 98067WC  24116.45831461  .00172834  00000+0  10999-2 0  9996
2 58229  51.6311 203.7349 0006240 348.1169  11.9682 15.75363957 27329
PROGRESS-MS 25          
1 58460U 23184A   24115.78066593  .00038284  00000+0  65571-3 0  9999
2 58460  51.6381 220.2226 0004657  91.4748 268.6775 15.50834970450226
BEAK                    
1 58612U 98067WD  24116.50936139  .00180239  00000+0  12911-2 0  9990
2 58612  51.6333 207.0966 0005461 352.7393   7.3526 15.72597381 20231
TIANZHOU-7              
1 58811U 24013A   24115.88407003  .00055394  00000+0  60381-3 0  9992
2 58811  41.4680  48.6823 0004159 266.1424  93.8940 15.62507682449915
CYGNUS NG-20            
1 58898U 24021A   24115.78066593  .00038284  00000+0  65571-3 0  9995
2 58898  51.6381 220.2226 0004657  91.4748 268.6775 15.50834970450221
PROGRESS-MS 26          
1 58961U 24029A   24115.78066593  .00038284  00000+0  65571-3 0  9994
2 58961  51.6381 220.2226 0004657  91.4748 268.6775 15.50834970450222
CREW DRAGON 8           
1 59097U 24042A   24115.78066593  .00038284  00000+0  65571-3 0  9990
2 59097  51.6381 220.2226 0004657  91.4748 268.6775 15.50834970450223
DRAGON CRS-30           
1 59287U 24054A   24115.54259257  .00037767  00000+0  64747-3 0  9998
2 59287  51.6404 221.3990 0004715  97.4608  12.6593 15.50814581450227
SOYUZ-MS 25             
1 59294U 24055A   24115.54259257  .00037767  00000+0  64747-3 0  9997
2 59294  51.6404 221.3990 0004715  97.4608  12.6593 15.50814581450225
MICROORBITER-1          
1 59483U 98067WF  24116.53826796  .00105406  00000+0  15942-2 0  9997
2 59483  51.6376 216.2822 0002404  80.5602 279.5660 15.53854502  2266
CURTIS                  
1 59507U 98067WG  24116.53938826  .00079753  00000+0  12333-2 0  9998
2 59507  51.6380 216.2904 0001477  96.4326 263.6833 15.53372794  2272
KASHIWA                 
1 59508U 98067WH  24116.53795638  .00120560  00000+0  18100-2 0  9992
2 59508  51.6374 216.2798 0002292  78.2259 281.8988 15.53989111  2276
1998-067WJ              
1 59559U 98067WJ  24115.84036078  .00092430  00000+0  14753-2 0  9991
2 59559  51.6381 219.8706 0003907  33.7179 326.4058 15.52423116  1033
1998-067WK              
1 59560U 98067WK  24115.71088917  .00052046  00000+0  86266-3 0  9996
2 59560  51.6392 220.5255 0002274  85.7043 260.1065 15.51625903   935
1998-067WL              
1 59561U 98067WL  24115.77785714  .00053523  00000+0  88635-3 0  9995
2 59561  51.6384 220.2038 0002412  69.8793 290.2456 15.51638945   985
1998-067WM              
1 59562U 98067WM  24115.84115726  .00100865  00000+0  16181-2 0  9992
2 59562  51.6379 219.8762 0002595  94.9634 265.1652 15.52244545  1017
1998-067WN              
1 59563U 98067WN  24116.48557891  .00074547  00000+0  12072-2 0  9999
2 59563  51.6383 216.6809 0002881  97.1958 262.9359 15.52120455  1104
